{
    "links": {
        "self": "http://www.neowsapp.com/rest/v1/neo/3653471?api_key=iIulBulltgU6a56xZRHN4H3l9WmuAYTsLGpBGhQ2"
    },
    "id": "3653471",
    "neo_reference_id": "3653471",
    "name": "(2013 VP4)",
    "designation": "2013 VP4",
    "nasa_jpl_url": "http://ssd.jpl.nasa.gov/sbdb.cgi?sstr=3653471",
    "absolute_magnitude_h": 24.3,
    "estimated_diameter": {
        "kilometers": {
            "estimated_diameter_min": 0.0366906138,
            "estimated_diameter_max": 0.0820427065
        },
        "meters": {
            "estimated_diameter_min": 36.6906137531,
            "estimated_diameter_max": 82.0427064882
        },
        "miles": {
            "estimated_diameter_min": 0.0227984834,
            "estimated_diameter_max": 0.0509789586
        },
        "feet": {
            "estimated_diameter_min": 120.3760332259,
            "estimated_diameter_max": 269.1689931548
        }
    },
    "is_potentially_hazardous_asteroid": false,
    "close_approach_data": [
        {
            "close_approach_date": "2013-10-10",
            "close_approach_date_full": "2013-Oct-10 18:27",
            "epoch_date_close_approach": 1381429620000,
            "relative_velocity": {
                "kilometers_per_second": "9.1955725359",
                "kilometers_per_hour": "33104.0611291101",
                "miles_per_hour": "20569.576205474"
            },
            "miss_distance": {
                "astronomical": "0.0675940947",
                "lunar": "26.2941028383",
                "kilometers": "10111932.591698289",
                "miles": "6283263.5536788282"
            },
            "orbiting_body": "Earth"
        }
    ],
    "orbital_data": {
        "orbit_id": "6",
        "orbit_determination_date": "2017-04-06 08:43:49",
        "first_observation_date": "2013-11-04",
        "last_observation_date": "2013-11-07",
        "data_arc_in_days": 3,
        "observations_used": 18,
        "orbit_uncertainty": "9",
        "minimum_orbit_intersection": ".0508348",
        "jupiter_tisserand_invariant": "3.115",
        "epoch_osculation": "2456602.5",
        "eccentricity": ".6081514403627546",
        "semi_major_axis": "2.612704968566381",
        "inclination": "3.322345447225072",
        "ascending_node_longitude": "53.51886368347115",
        "orbital_period": "1542.53129437602",
        "perihelion_distance": "1.023784678689811",
        "perihelion_argument": "303.355782659447",
        "aphelion_distance": "4.201625258442951",
        "perihelion_time": "2456560.629068265658",
        "mean_anomaly": "9.771947888072262",
        "mean_motion": ".2333826232975235",
        "equinox": "J2000",
        "orbit_class": {
            "orbit_class_type": "AMO",
            "orbit_class_description": "Near-Earth asteroid orbits similar to that of 1221 Amor",
            "orbit_class_range": "1.017 AU < q (perihelion) < 1.3 AU"
        }
    },
    "is_sentry_object": false
}